      2.10          N: GNSS NAV DATA                        RINEX VERSION / TYPE
fic2rin                                 03/03/2024 00:18:06 PGM / RUN BY / DATE
                                                            END OF HEADER
2  24  3  2  1 59 44.0 -.477027148008D-03  .602540239925D-11  .000000000000D+00
     .200000000000D+02 -.638437500000D+02  .443518474325D-08 -.341014597038D+00
    -.344403088093D-05  .161442784593D-01  .712089240551D-05  .515371160316D+04
     .525584000000D+06 -.255182385445D-06 -.271919084455D+01 -.614672899246D-07
     .967783552847D+00  .249687500000D+03 -.122949158044D+01 -.835141929871D-08
    -.500020827875D-10  .100000000000D+01  .230300000000D+04  .000000000000D+00
     .240000000000D+01  .000000000000D+00 -.176951289177D-07  .200000000000D+02
     .518400000000D+06  .400000000000D+01
1  24  3  2  1 59 44.0  .171886757016D-03  .181898940355D-11  .000000000000D+00
     .250000000000D+02 -.728437500000D+02  .378444335154D-08 -.300289643190D+01
    -.386126339436D-05  .128275492461D-01  .753439962864D-05  .515400873566D+04
     .525584000000D+06  .117346644402D-06 -.261444575647D+01 -.188127160072D-06
     .990850160475D+00  .248312500000D+03  .999932826347D+00 -.759924511049D-08
    -.878608026122D-10  .100000000000D+01  .230300000000D+04  .000000000000D+00
     .240000000000D+01  .630000000000D+02  .512227416039D-08  .250000000000D+02
     .518400000000D+06  .400000000000D+01
7  24  3  2  1 59 44.0 -.745612196624D-04 -.886757334229D-11  .000000000000D+00
     .540000000000D+02 -.425000000000D+01  .454090343257D-08  .279673666335D+01
    -.365078449249D-06  .180487899343D-01  .977516174316D-05  .515366348839D+04
     .525584000000D+06  .102445483208D-06  .506597582371D+00 -.217929482460D-06
     .950641146088D+00  .182812500000D+03 -.214656177314D+01 -.762603194055D-08
    -.272154193457D-09  .100000000000D+01  .230300000000D+04  .000000000000D+00
     .240000000000D+01  .000000000000D+00 -.111758708954D-07  .540000000000D+02
     .518400000000D+06  .400000000000D+01
5  24  3  2  2  0  0.0 -.163818709552D-03 -.147792889038D-11  .000000000000D+00
     .220000000000D+02 -.264062500000D+02  .435018120251D-08 -.297602438668D+00
    -.122934579849D-05  .566400203388D-02  .789761543274D-05  .515356985664D+04
     .525600000000D+06 -.279396772385D-07 -.163628444124D+01  .260770320892D-07
     .969824161183D+00  .230968750000D+03  .123041075381D+01 -.802962018020D-08
     .231438211759D-09  .100000000000D+01  .230300000000D+04  .000000000000D+00
     .240000000000D+01  .000000000000D+00 -.111758708954D-07  .220000000000D+02
     .518400000000D+06  .400000000000D+01
3  24  3  2  2  0  0.0  .226651318371D-03  .234194885707D-10  .000000000000D+00
     .440000000000D+02 -.255625000000D+02  .395337895982D-08  .241454253159D+01
    -.142864882946D-05  .513319973834D-02  .889040529728D-05  .515377011108D+04
     .525600000000D+06 -.298023223877D-07 -.158606113672D+01 -.670552253723D-07
     .982828497883D+00  .216281250000D+03  .106414343588D+01 -.765139013968D-08
     .323584907182D-09  .100000000000D+01  .230300000000D+04  .000000000000D+00
     .240000000000D+01  .000000000000D+00  .186264514923D-08  .440000000000D+02
     .518400000000D+06  .400000000000D+01
26 24  3  2  8  0  0.0  .184278935194D-03 -.432009983342D-11  .000000000000D+00
     .920000000000D+02  .766250000000D+02  .496984987134D-08 -.194512949459D+01
     .389292836189D-05  .883624411654D-02  .870972871780D-05  .515360121727D+04
     .547200000000D+06 -.745058059692D-08  .147543573970D+01 -.106170773506D-06
     .931459703630D+00  .195812500000D+03  .534631292808D+00 -.816784022333D-08
     .678599694973D-11  .100000000000D+01  .230300000000D+04  .000000000000D+00
     .240000000000D+01  .000000000000D+00  .698491930962D-08  .920000000000D+02
     .540000000000D+06  .400000000000D+01
15 24  3  2  8  0  0.0  .133348628879D-03  .397903932026D-11  .000000000000D+00
     .970000000000D+02 -.250000000000D+02  .551058668091D-08  .154549274334D+01
    -.153668224812D-05  .154505333630D-01  .645592808723D-05  .515360873222D+04
     .547200000000D+06 -.245869159698D-06 -.691109046757D+00 -.312924385071D-06
     .934636528254D+00  .245187500000D+03  .129399984845D+01 -.849106797278D-08
     .187507810453D-09  .100000000000D+01  .230300000000D+04  .000000000000D+00
     .240000000000D+01  .000000000000D+00 -.102445483208D-07  .970000000000D+02
     .540000000000D+06  .400000000000D+01
20 24  3  2  8  0  0.0  .385466031730D-03 -.147792889038D-11  .000000000000D+00
     .630000000000D+02 -.340000000000D+02  .465555106525D-08  .103295057433D+01
    -.194087624550D-05  .381852313876D-02  .875256955624D-05  .515373343086D+04
     .547200000000D+06 -.651925802231D-07 -.176383885794D+01  .353902578354D-07
     .952358333959D+00  .205906250000D+03 -.261653110669D+01 -.811105214359D-08
     .262153776900D-09  .100000000000D+01  .230300000000D+04  .000000000000D+00
     .240000000000D+01  .000000000000D+00 -.838190317154D-08  .630000000000D+02
     .540000000000D+06  .400000000000D+01
17 24  3  2  8  0  0.0  .715166330338D-03 -.125055521494D-11  .000000000000D+00
     .970000000000D+02  .249687500000D+02  .422017578726D-08  .254677294649D+01
     .139512121677D-05  .135084011126D-01  .343844294548D-05  .515368278694D+04
     .547200000000D+06  .165775418282D-06  .266142580234D+01  .558793544769D-08
     .970250650080D+00  .314562500000D+03 -.133206614135D+01 -.787675666996D-08
    -.121076471892D-09  .100000000000D+01  .230300000000D+04  .000000000000D+00
     .240000000000D+01  .000000000000D+00 -.111758708954D-07  .970000000000D+02
     .540000000000D+06  .400000000000D+01
25 24  3  2  8  0  0.0  .490176025778D-03  .102318153949D-11  .000000000000D+00
     .620000000000D+02  .919062500000D+02  .467198032102D-08 -.113909007789D+01
     .484101474285D-05  .118303694762D-01  .824593007565D-05  .515360966682D+04
     .547200000000D+06  .122934579849D-06  .153635122281D+01  .260770320892D-06
     .950662901143D+00  .215218750000D+03  .107907997576D+01 -.818391232137D-08
    -.950039572962D-10  .100000000000D+01  .230300000000D+04  .000000000000D+00
     .240000000000D+01  .000000000000D+00  .558793544769D-08  .620000000000D+02
     .540000000000D+06  .400000000000D+01
19 24  3  2  8  0  0.0  .448234844953D-03  .534328137292D-11  .000000000000D+00
     .690000000000D+02  .133750000000D+02  .434732394063D-08 -.170166880993D+01
     .836327672005D-06  .952535623219D-02  .402331352234D-05  .515368796349D+04
     .547200000000D+06 -.143423676491D-06  .270579297704D+01 -.428408384323D-07
     .969440620636D+00  .309750000000D+03  .248686303816D+01 -.817498337801D-08
     .517878714584D-10  .100000000000D+01  .230300000000D+04  .000000000000D+00
     .240000000000D+01  .000000000000D+00 -.153668224812D-07  .690000000000D+02
     .540000000000D+06  .400000000000D+01
14 24  3  2  8  0  0.0  .339917372912D-03  .989075488178D-11  .000000000000D+00
     .214000000000D+03  .756250000000D+02  .469555273148D-08 -.102862104487D+01
     .385753810406D-05  .404295127373D-02  .779330730438D-05  .515369222641D+04
     .547200000000D+06  .102445483208D-06  .157885825182D+01 -.145286321640D-06
     .946099606149D+00  .224656250000D+03 -.295974302863D+01 -.809819446516D-08
    -.796461747257D-10  .100000000000D+01  .230300000000D+04  .000000000000D+00
     .240000000000D+01  .000000000000D+00 -.791624188423D-08  .214000000000D+03
     .540000000000D+06  .400000000000D+01
18 24  3  2  8  0  0.0 -.567162409425D-03 -.784439180279D-11  .000000000000D+00
     .260000000000D+02 -.645625000000D+02  .412338604129D-08  .491974738940D+00
    -.332109630108D-05  .386102765333D-02  .649131834507D-05  .515362535667D+04
     .547200000000D+06  .670552253723D-07 -.261772268565D+01  .745058059692D-07
     .974742696574D+00  .261937500000D+03 -.302985816571D+01 -.802747723379D-08
    -.535736601294D-10  .100000000000D+01  .230300000000D+04  .000000000000D+00
     .240000000000D+01  .000000000000D+00 -.838190317154D-08  .538000000000D+03
     .540000000000D+06  .400000000000D+01
28 24  3  2  8  0  0.0 -.149744562805D-03 -.134150468512D-10  .000000000000D+00
     .690000000000D+02 -.453125000000D+01  .451161649836D-08 -.180689483965D+01
    -.305473804474D-06  .602176063694D-03  .920891761780D-05  .515360201645D+04
     .547200000000D+06 -.372529029846D-08  .472351116326D+00 -.204890966415D-07
     .961763065635D+00  .202125000000D+03  .173879944676D+01 -.790390065776D-08
    -.344300055765D-09  .100000000000D+01  .230300000000D+04  .000000000000D+00
     .240000000000D+01  .000000000000D+00 -.931322574615D-08  .581000000000D+03
     .540000000000D+06  .400000000000D+01
23 24  3  2  8  0  0.0  .167946331203D-03  .841282599140D-11  .000000000000D+00
     .650000000000D+02 -.411562500000D+02  .410302805044D-08 -.635320421497D+00
    -.208616256714D-05  .400015513878D-02  .844523310661D-05  .515370962715D+04
     .547200000000D+06  .558793544769D-07 -.161738409557D+01  .242143869400D-07
     .977666064790D+00  .225406250000D+03 -.295667308772D+01 -.781461122421D-08
     .371086885830D-09  .100000000000D+01  .230300000000D+04  .000000000000D+00
     .240000000000D+01  .000000000000D+00 -.838190317154D-08  .833000000000D+03
     .540000000000D+06  .400000000000D+01
20 24  3  2  7 59 44.0  .385465566069D-03 -.147792889038D-11  .000000000000D+00
     .640000000000D+02 -.340000000000D+02  .465590822298D-08  .103061654266D+01
    -.194087624550D-05  .381852115970D-02  .875256955624D-05  .515373344040D+04
     .547184000000D+06 -.651925802231D-07 -.176383872335D+01  .353902578354D-07
     .952358316404D+00  .205906250000D+03 -.261653079070D+01 -.811140930133D-08
     .262153776900D-09  .100000000000D+01  .230300000000D+04  .000000000000D+00
     .240000000000D+01  .000000000000D+00 -.838190317154D-08  .640000000000D+02
     .541200000000D+06  .400000000000D+01
